{
  "norad_id": 62324,
  "name": "HULIANWANG DIGUI-02",
  "history": [
    {
      "epoch": "2026-04-10T05:44:04.061760Z",
      "apogee_km": 1169.4264676776502,
      "perigee_km": 1166.4041228123597,
      "latitude_deg": 1.9680068666031768e-05,
      "longitude_deg": 81.8016407659149,
      "height_km": 1170.4471570827704,
      "semi_major_axis_km": 7546.052295245005,
      "eccentricity": 0.00020026,
      "inclination_deg": 86.5083,
      "raan_deg": 6.2942,
      "arg_perigee_deg": 76.2446,
      "mean_anomaly_deg": 283.8911,
      "mean_motion_rev_day": 13.24411814
    },
    {
      "epoch": "2026-04-11T19:48:38.716704Z",
      "apogee_km": 1169.4173723291578,
      "perigee_km": 1166.4125344413205,
      "latitude_deg": 6.601310818892137e-06,
      "longitude_deg": -131.44039651844406,
      "height_km": 1170.4337914743237,
      "semi_major_axis_km": 7546.051953385239,
      "eccentricity": 0.0001991,
      "inclination_deg": 86.5082,
      "raan_deg": 5.7603,
      "arg_perigee_deg": 75.6497,
      "mean_anomaly_deg": 284.4858,
      "mean_motion_rev_day": 13.24411904
    },
    {
      "epoch": "2026-04-13T06:15:38.628864Z",
      "apogee_km": 1169.4101797379053,
      "perigee_km": 1166.4193775759531,
      "latitude_deg": -6.702689284210649e-05,
      "longitude_deg": 69.91195415879916,
      "height_km": 1170.4294311721453,
      "semi_major_axis_km": 7546.051778656929,
      "eccentricity": 0.00019817,
      "inclination_deg": 86.5081,
      "raan_deg": 5.2771,
      "arg_perigee_deg": 75.4141,
      "mean_anomaly_deg": 284.7212,
      "mean_motion_rev_day": 13.2441195
    },
    {
      "epoch": "2026-04-14T20:20:13.287264Z",
      "apogee_km": 1169.407057168999,
      "perigee_km": 1166.4218392160928,
      "latitude_deg": -1.273699697739012e-05,
      "longitude_deg": -143.3301886608854,
      "height_km": 1170.426534518989,
      "semi_major_axis_km": 7546.051448192546,
      "eccentricity": 0.0001978,
      "inclination_deg": 86.5081,
      "raan_deg": 4.7431,
      "arg_perigee_deg": 75.2844,
      "mean_anomaly_deg": 284.8509,
      "mean_motion_rev_day": 13.24412037
    },
    {
      "epoch": "2026-04-15T19:54:29.029824Z",
      "apogee_km": 1169.4001175543317,
      "perigee_km": 1166.42848255237,
      "latitude_deg": 2.882977029504332e-05,
      "longitude_deg": -138.1944064452471,
      "height_km": 1170.4178855131524,
      "semi_major_axis_km": 7546.051300053351,
      "eccentricity": 0.0001969,
      "inclination_deg": 86.508,
      "raan_deg": 4.4125,
      "arg_perigee_deg": 74.8758,
      "mean_anomaly_deg": 285.2594,
      "mean_motion_rev_day": 13.24412076
    },
    {
      "epoch": "2026-04-16T19:28:44.760288Z",
      "apogee_km": 1169.391623139497,
      "perigee_km": 1166.4365895262572,
      "latitude_deg": -1.5318402961652037e-05,
      "longitude_deg": -133.05857891078637,
      "height_km": 1170.4116514557945,
      "semi_major_axis_km": 7546.051106332877,
      "eccentricity": 0.0001958,
      "inclination_deg": 86.5078,
      "raan_deg": 4.0819,
      "arg_perigee_deg": 74.5448,
      "mean_anomaly_deg": 285.5902,
      "mean_motion_rev_day": 13.24412127
    },
    {
      "epoch": "2026-04-17T22:40:35.198112Z",
      "apogee_km": 1169.3793817708402,
      "perigee_km": 1166.4483446945433,
      "latitude_deg": -2.2809669450113103e-05,
      "longitude_deg": 177.48280926178973,
      "height_km": 1170.4106308267249,
      "semi_major_axis_km": 7546.050863232691,
      "eccentricity": 0.00019421,
      "inclination_deg": 86.5077,
      "raan_deg": 3.7004,
      "arg_perigee_deg": 74.3823,
      "mean_anomaly_deg": 285.7525,
      "mean_motion_rev_day": 13.24412191
    },
    {
      "epoch": "2026-04-18T20:26:03.544224Z",
      "apogee_km": 1169.375153367323,
      "perigee_km": 1166.451813410058,
      "latitude_deg": -6.552636379971192e-05,
      "longitude_deg": -150.08406620570582,
      "height_km": 1170.411021538093,
      "semi_major_axis_km": 7546.05048338869,
      "eccentricity": 0.0001937,
      "inclination_deg": 86.5076,
      "raan_deg": 3.3952,
      "arg_perigee_deg": 74.3709,
      "mean_anomaly_deg": 285.7638,
      "mean_motion_rev_day": 13.24412291
    },
    {
      "epoch": "2026-04-19T20:00:19.260864Z",
      "apogee_km": 1169.3681377707398,
      "perigee_km": 1166.458380790762,
      "latitude_deg": -3.887480859544342e-05,
      "longitude_deg": -144.94827954027429,
      "height_km": 1170.4063184279016,
      "semi_major_axis_km": 7546.050259280751,
      "eccentricity": 0.0001928,
      "inclination_deg": 86.5075,
      "raan_deg": 3.0645,
      "arg_perigee_deg": 74.1122,
      "mean_anomaly_deg": 286.0224,
      "mean_motion_rev_day": 13.2441235
    },
    {
      "epoch": "2026-04-20T14:08:12.892704Z",
      "apogee_km": 1169.3638088821253,
      "perigee_km": 1166.4623526260757,
      "latitude_deg": 3.1239432800375695e-05,
      "longitude_deg": -57.92067968509934,
      "height_km": 1170.4051540431794,
      "semi_major_axis_km": 7546.0500807541,
      "eccentricity": 0.00019225,
      "inclination_deg": 86.5074,
      "raan_deg": 2.8102,
      "arg_perigee_deg": 74.0251,
      "mean_anomaly_deg": 286.1095,
      "mean_motion_rev_day": 13.24412397
    },
    {
      "epoch": "2026-04-21T19:08:50.686368Z",
      "apogee_km": 1169.3586228112254,
      "perigee_km": 1166.4669765279923,
      "latitude_deg": -6.443871153953317e-05,
      "longitude_deg": -134.67658092031354,
      "height_km": 1170.398748880967,
      "semi_major_axis_km": 7546.049799669609,
      "eccentricity": 0.0001916,
      "inclination_deg": 86.5073,
      "raan_deg": 2.4032,
      "arg_perigee_deg": 73.7156,
      "mean_anomaly_deg": 286.4188,
      "mean_motion_rev_day": 13.24412471
    },
    {
      "epoch": "2026-04-22T18:43:06.372768Z",
      "apogee_km": 1169.3486647791806,
      "perigee_km": 1166.476638281807,
      "latitude_deg": -1.4119765606495139e-05,
      "longitude_deg": -129.5405678476685,
      "height_km": 1170.3997603306789,
      "semi_major_axis_km": 7546.049651530493,
      "eccentricity": 0.0001903,
      "inclination_deg": 86.5071,
      "raan_deg": 2.0726,
      "arg_perigee_deg": 73.6489,
      "mean_anomaly_deg": 286.4854,
      "mean_motion_rev_day": 13.2441251
    },
    {
      "epoch": "2026-04-23T12:50:59.973504Z",
      "apogee_km": 1169.3362165511917,
      "perigee_km": 1166.4887902315822,
      "latitude_deg": -5.182357780957909e-05,
      "longitude_deg": -42.5129445587996,
      "height_km": 1170.406849774286,
      "semi_major_axis_km": 7546.049503391387,
      "eccentricity": 0.00018867,
      "inclination_deg": 86.5071,
      "raan_deg": 1.8182,
      "arg_perigee_deg": 73.8058,
      "mean_anomaly_deg": 286.3283,
      "mean_motion_rev_day": 13.24412549
    },
    {
      "epoch": "2026-04-24T19:40:25.099680Z",
      "apogee_km": 1169.3209215300094,
      "perigee_km": 1166.5032268057157,
      "latitude_deg": -1.3128724253937053e-05,
      "longitude_deg": -146.56591834030345,
      "height_km": 1170.405701251432,
      "semi_major_axis_km": 7546.049074167862,
      "eccentricity": 0.0001867,
      "inclination_deg": 86.507,
      "raan_deg": 1.3858,
      "arg_perigee_deg": 73.5984,
      "mean_anomaly_deg": 286.5355,
      "mean_motion_rev_day": 13.24412662
    },
    {
      "epoch": "2026-04-25T19:14:40.792992Z",
      "apogee_km": 1169.3099847454278,
      "perigee_km": 1166.5134190964955,
      "latitude_deg": 3.3969034525094114e-05,
      "longitude_deg": -141.430032125964,
      "height_km": 1170.4098703211434,
      "semi_major_axis_km": 7546.048701920961,
      "eccentricity": 0.0001853,
      "inclination_deg": 86.5069,
      "raan_deg": 1.0551,
      "arg_perigee_deg": 73.6643,
      "mean_anomaly_deg": 286.4695,
      "mean_motion_rev_day": 13.2441276
    },
    {
      "epoch": "2026-04-26T22:26:31.216128Z",
      "apogee_km": 1169.3009381297588,
      "perigee_km": 1166.5227847809256,
      "latitude_deg": -4.2821976596813376e-05,
      "longitude_deg": 169.11121226348848,
      "height_km": 1170.4150209473933,
      "semi_major_axis_km": 7546.048861455342,
      "eccentricity": 0.00018408,
      "inclination_deg": 86.5068,
      "raan_deg": 0.6734,
      "arg_perigee_deg": 73.7662,
      "mean_anomaly_deg": 286.3674,
      "mean_motion_rev_day": 13.24412718
    },
    {
      "epoch": "2026-04-27T20:11:59.717760Z",
      "apogee_km": 1169.3336577478694,
      "perigee_km": 1166.5295386567786,
      "latitude_deg": 6.356807304409952e-05,
      "longitude_deg": -158.45630325204047,
      "height_km": 1170.4103573768225,
      "semi_major_axis_km": 7546.068598202324,
      "eccentricity": 0.0001858,
      "inclination_deg": 86.5069,
      "raan_deg": 0.3682,
      "arg_perigee_deg": 72.8819,
      "mean_anomaly_deg": 287.2519,
      "mean_motion_rev_day": 13.24407522
    },
    {
      "epoch": "2026-04-28T19:46:15.720384Z",
      "apogee_km": 1169.320563489934,
      "perigee_km": 1166.5421011299777,
      "latitude_deg": 3.467728175264671e-05,
      "longitude_deg": -153.3218130582554,
      "height_km": 1170.4170750526189,
      "semi_major_axis_km": 7546.068332309956,
      "eccentricity": 0.0001841,
      "inclination_deg": 86.5065,
      "raan_deg": 0.0374,
      "arg_perigee_deg": 73.0191,
      "mean_anomaly_deg": 287.1145,
      "mean_motion_rev_day": 13.24407592
    },
    {
      "epoch": "2026-04-29T19:20:31.725600Z",
      "apogee_km": 1169.3097444508148,
      "perigee_km": 1166.552411175181,
      "latitude_deg": 5.7706656365119854e-05,
      "longitude_deg": -148.18723092442664,
      "height_km": 1170.426506492799,
      "semi_major_axis_km": 7546.068077812997,
      "eccentricity": 0.0001827,
      "inclination_deg": 86.5064,
      "raan_deg": 359.7067,
      "arg_perigee_deg": 73.305,
      "mean_anomaly_deg": 286.8285,
      "mean_motion_rev_day": 13.24407659
    }
  ]
}